[{"OBJECT_NAME":"NUSAT-35 (WILLIAMINA)","OBJECT_ID":"2023-001AR","EPOCH":"2026-03-09T22:28:40.425600","MEAN_MOTION":15.3245616,"ECCENTRICITY":0.00136635,"INCLINATION":97.1993,"RA_OF_ASC_NODE":124.278,"ARG_OF_PERICENTER":97.0313,"MEAN_ANOMALY":263.2484,"EPHEMERIS_TYPE":0,"CLASSIFICATION_TYPE":"U","NORAD_CAT_ID":55048,"ELEMENT_SET_NO":999,"REV_AT_EPOCH":17719,"BSTAR":0.00053479647,"MEAN_MOTION_DOT":0.0001675,"MEAN_MOTION_DDOT":0},{"OBJECT_NAME":"STARLINK-31881","OBJECT_ID":"2024-084F","EPOCH":"2026-03-09T06:32:49.494048","MEAN_MOTION":15.27592544,"ECCENTRICITY":9.972e-5,"INCLINATION":43.0039,"RA_OF_ASC_NODE":40.3268,"ARG_OF_PERICENTER":277.3177,"MEAN_ANOMALY":82.7561,"EPHEMERIS_TYPE":0,"CLASSIFICATION_TYPE":"U","NORAD_CAT_ID":59659,"ELEMENT_SET_NO":999,"REV_AT_EPOCH":10435,"BSTAR":-5.3394297e-5,"MEAN_MOTION_DOT":-1.732e-5,"MEAN_MOTION_DDOT":0}]
